[{"OBJECT_NAME":"STARLINK-35501","OBJECT_ID":"2025-259Q","EPOCH":"2026-03-09T13:13:26.061312","MEAN_MOTION":15.27569906,"ECCENTRICITY":0.00040777,"INCLINATION":43.0011,"RA_OF_ASC_NODE":274.8197,"ARG_OF_PERICENTER":295.3418,"MEAN_ANOMALY":64.7011,"EPHEMERIS_TYPE":0,"CLASSIFICATION_TYPE":"U","NORAD_CAT_ID":66436,"ELEMENT_SET_NO":999,"REV_AT_EPOCH":1947,"BSTAR":0.00091587863,"MEAN_MOTION_DOT":0.00025023,"MEAN_MOTION_DDOT":0},{"OBJECT_NAME":"OBJECT D","OBJECT_ID":"2026-023D","EPOCH":"2026-03-09T17:19:13.762848","MEAN_MOTION":15.22920595,"ECCENTRICITY":0.00208003,"INCLINATION":96.6418,"RA_OF_ASC_NODE":141.6791,"ARG_OF_PERICENTER":127.3034,"MEAN_ANOMALY":233.0105,"EPHEMERIS_TYPE":0,"CLASSIFICATION_TYPE":"U","NORAD_CAT_ID":67677,"ELEMENT_SET_NO":999,"REV_AT_EPOCH":485,"BSTAR":0.00050428287,"MEAN_MOTION_DOT":0.00011849,"MEAN_MOTION_DDOT":0}]
